ONEWEB-0053             
1 45157U 20008AC  23318.43603260  .00000453  00000+0  12629-2 0  9996
2 45157  87.8921 224.1092 0001833  71.1702 288.9624 13.10370232184815
ONEWEB-0054             
1 45158U 20008AD  23318.47176250 -.00000515  00000+0 -15110-2 0  9994
2 45158  87.8927 224.0881 0001714  72.1789 287.9525 13.10376257184936
ONEWEB-0056             
1 45159U 20008AE  23318.14683963 -.00000378  00000+0 -11193-2 0  9997
2 45159  87.8921 224.1476 0001825  68.2150 291.9171 13.10372339185045
ONEWEB-0057             
1 45160U 20008AF  23318.45876311 -.00000529  00000+0 -15516-2 0  9995
2 45160  87.8928 224.0804 0001752  65.6785 294.4525 13.10368018184984
ONEWEB-0058             
1 45161U 20008AG  23318.14050139  .00000175  00000+0  46417-3 0  9994
2 45161  87.8927 224.1900 0001672  70.8125 289.3183 13.10372687185272
ONEWEB-0059             
1 45162U 20008AH  23318.44253540  .00000158  00000+0  41711-3 0  9992
2 45162  87.8922 224.1014 0001544  69.8878 290.2415 13.10367107185208
ONEWEB-0062             
1 45163U 20008AJ  23317.47748566 -.00000466  00000+0 -13707-2 0  9999
2 45163  87.8927 224.2794 0001744  74.0951 286.0368 13.10375704184203
ONEWEB-0065             
1 45164U 20008AK  23318.14197163 -.00000140  00000+0 -43635-3 0  9999
2 45164  87.8926 224.1448 0001795  69.9682 290.1639 13.10371330184723
